ORBCOMM FM32            
1 25982U 99065C   26091.19445330  .00000819  00000+0  32106-3 0  9994
2 25982  45.0147 177.6423 0004210  23.9185 336.1858 14.37011243376011
XMM-NEWTON              
1 25989U 99066A   26091.55905200  .00000020  00000+0  00000+0 0  9997
2 25989  64.8690 283.9727 4699859  66.2848   0.0194  0.50131173 22627
TERRA                   
1 25994U 99068A   26091.18467219  .00000488  00000+0  10848-3 0  9990
2 25994  97.9545 143.7548 0003623 105.1982 347.6695 14.61038417398366
ASIASTAR                
1 26107U 00016A   26090.88725373 -.00000340  00000+0  00000+0 0  9999
2 26107   8.9526  58.9686 0004941 318.6388 236.0724  1.00273237 95143
IMAGE                   
1 26113U 00017A   26090.60466217  .00000061  00000+0 -71138-2 0  9999
2 26113  94.1669 314.3364 7490495 296.6472   7.4469  1.68665432160196
USA 149 (DSP 20)        
1 26356U 00024A   26090.50683373  .00000086  00000+0  00000+0 0  9992
2 26356  13.1135  12.4016 0001711 337.2434 216.5182  1.00265740 32137
TDRS 8                  
1 26388U 00034A   26090.81623036 -.00000201  00000+0  00000+0 0  9992
2 26388  12.5633  31.9677 0005899 327.9257 208.0281  1.00271278 94404
ISS (ZVEZDA)            
1 26400U 00037A   26091.10102623  .00008862  00000+0  17059-3 0  9993
2 26400  51.6334 321.5639 0006224 257.9417 102.0874 15.48690056559537
NAVSTAR 48 (USA 151)    
1 26407U 00040A   26090.75256877 -.00000036  00000+0  00000+0 0  9995
2 26407  54.8689 218.2361 0122172 302.5173 230.0733  2.00569238188392
CLUSTER II-FM7 (SAMBA)  
1 26410U 00041A   26090.03773165  .00002444  00000+0  00000+0 0  9999
2 26410 149.3581  38.1493 8953066 254.4502   0.4223  0.44796982 19968
CLUSTER II-FM8 (TANGO)  
1 26464U 00045B   26091.85737413  .00002741  00000+0  00000+0 0  9999
2 26464 149.6610  39.2823 8959323 255.4590   0.3323  0.44400395 19951
NSS-11                  
1 26554U 00059A   26091.14491318  .00000016  00000+0  00000+0 0  9990
2 26554   1.9284  82.2836 0003046 285.9106  49.4680  1.00272264 40516
USA 153                 
1 26575U 00065A   26090.71989000 -.00000330  00000+0  00000+0 0  9992
2 26575  11.4937  36.0521 0003334  16.9860 169.6780  1.00275703 32155
AMC-6                   
1 26580U 00067A   26091.15461987  .00000078  00000+0  00000+0 0  9996
2 26580   0.0566  51.6540 0003584 329.9696  88.4866  1.00272485 93129
NAVSTAR 49 (USA 154)    
1 26605U 00071A   26090.88725373  .00000036  00000+0  00000+0 0  9994
2 26605  55.5807  98.0056 0173916 265.9706 287.0440  2.00569249185962
ISS (DESTINY)           
1 26700U 01006B   26091.10102623  .00008862  00000+0  17059-3 0  9993
2 26700  51.6334 321.5639 0006224 257.9417 102.0874 15.48690056559574
ODIN                    
1 26702U 01007A   26091.05328762  .00057026  00000+0  68067-3 0  9995
2 26702  97.4018 128.0466 0004781  94.7893 265.3911 15.60859288377326
