[{"OBJECT_NAME":"ORBCOMM FM32","OBJECT_ID":"1999-065C","EPOCH":"2026-04-01T04:40:00.765120","MEAN_MOTION":14.37011243,"ECCENTRICITY":0.000421,"INCLINATION":45.0147,"RA_OF_ASC_NODE":177.6423,"ARG_OF_PERICENTER":23.9185,"MEAN_ANOMALY":336.1858,"EPHEMERIS_TYPE":0,"CLASSIFICATION_TYPE":"U","NORAD_CAT_ID":25982,"ELEMENT_SET_NO":999,"REV_AT_EPOCH":37601,"BSTAR":0.00032106,"MEAN_MOTION_DOT":8.19e-6,"MEAN_MOTION_DDOT":0},{"OBJECT_NAME":"XMM-NEWTON","OBJECT_ID":"1999-066A","EPOCH":"2026-04-01T13:25:02.092800","MEAN_MOTION":0.50131173,"ECCENTRICITY":0.46998596,"INCLINATION":64.869,"RA_OF_ASC_NODE":283.9727,"ARG_OF_PERICENTER":66.2848,"MEAN_ANOMALY":0.0194,"EPHEMERIS_TYPE":0,"CLASSIFICATION_TYPE":"U","NORAD_CAT_ID":25989,"ELEMENT_SET_NO":999,"REV_AT_EPOCH":2262,"BSTAR":0,"MEAN_MOTION_DOT":2.0e-7,"MEAN_MOTION_DDOT":0},{"OBJECT_NAME":"TERRA","OBJECT_ID":"1999-068A","EPOCH":"2026-04-01T04:25:55.677216","MEAN_MOTION":14.61038417,"ECCENTRICITY":0.0003623,"INCLINATION":97.9545,"RA_OF_ASC_NODE":143.7548,"ARG_OF_PERICENTER":105.1982,"MEAN_ANOMALY":347.6695,"EPHEMERIS_TYPE":0,"CLASSIFICATION_TYPE":"U","NORAD_CAT_ID":25994,"ELEMENT_SET_NO":999,"REV_AT_EPOCH":39836,"BSTAR":0.00010848,"MEAN_MOTION_DOT":4.88e-6,"MEAN_MOTION_DDOT":0},{"OBJECT_NAME":"ASIASTAR","OBJECT_ID":"2000-016A","EPOCH":"2026-03-31T21:17:38.722272","MEAN_MOTION":1.00273237,"ECCENTRICITY":0.0004941,"INCLINATION":8.9526,"RA_OF_ASC_NODE":58.9686,"ARG_OF_PERICENTER":318.6388,"MEAN_ANOMALY":236.0724,"EPHEMERIS_TYPE":0,"CLASSIFICATION_TYPE":"U","NORAD_CAT_ID":26107,"ELEMENT_SET_NO":999,"REV_AT_EPOCH":9514,"BSTAR":0,"MEAN_MOTION_DOT":-3.4e-6,"MEAN_MOTION_DDOT":0},{"OBJECT_NAME":"IMAGE","OBJECT_ID":"2000-017A","EPOCH":"2026-03-31T14:30:42.811488","MEAN_MOTION":1.68665432,"ECCENTRICITY":0.7490495,"INCLINATION":94.1669,"RA_OF_ASC_NODE":314.3364,"ARG_OF_PERICENTER":296.6472,"MEAN_ANOMALY":7.4469,"EPHEMERIS_TYPE":0,"CLASSIFICATION_TYPE":"U","NORAD_CAT_ID":26113,"ELEMENT_SET_NO":999,"REV_AT_EPOCH":16019,"BSTAR":-0.0071138,"MEAN_MOTION_DOT":6.1e-7,"MEAN_MOTION_DDOT":0},{"OBJECT_NAME":"USA 149 (DSP 20)","OBJECT_ID":"2000-024A","EPOCH":"2026-03-31T12:09:50.434272","MEAN_MOTION":1.0026574,"ECCENTRICITY":0.0001711,"INCLINATION":13.1135,"RA_OF_ASC_NODE":12.4016,"ARG_OF_PERICENTER":337.2434,"MEAN_ANOMALY":216.5182,"EPHEMERIS_TYPE":0,"CLASSIFICATION_TYPE":"U","NORAD_CAT_ID":26356,"ELEMENT_SET_NO":999,"REV_AT_EPOCH":3213,"BSTAR":0,"MEAN_MOTION_DOT":8.6e-7,"MEAN_MOTION_DDOT":0},{"OBJECT_NAME":"TDRS 8","OBJECT_ID":"2000-034A","EPOCH":"2026-03-31T19:35:22.303104","MEAN_MOTION":1.00271278,"ECCENTRICITY":0.00059,"INCLINATION":12.5633,"RA_OF_ASC_NODE":31.9677,"ARG_OF_PERICENTER":327.9257,"MEAN_ANOMALY":208.0281,"EPHEMERIS_TYPE":0,"CLASSIFICATION_TYPE":"U","NORAD_CAT_ID":26388,"ELEMENT_SET_NO":999,"REV_AT_EPOCH":9440,"BSTAR":0,"MEAN_MOTION_DOT":-2.01e-6,"MEAN_MOTION_DDOT":0},{"OBJECT_NAME":"ISS (ZVEZDA)","OBJECT_ID":"2000-037A","EPOCH":"2026-04-01T02:25:28.666272","MEAN_MOTION":15.48690056,"ECCENTRICITY":0.0006224,"INCLINATION":51.6334,"RA_OF_ASC_NODE":321.5639,"ARG_OF_PERICENTER":257.9417,"MEAN_ANOMALY":102.0874,"EPHEMERIS_TYPE":0,"CLASSIFICATION_TYPE":"U","NORAD_CAT_ID":26400,"ELEMENT_SET_NO":999,"REV_AT_EPOCH":55953,"BSTAR":0.00017059,"MEAN_MOTION_DOT":8.862e-5,"MEAN_MOTION_DDOT":0},{"OBJECT_NAME":"NAVSTAR 48 (USA 151)","OBJECT_ID":"2000-040A","EPOCH":"2026-03-31T18:03:41.940864","MEAN_MOTION":2.00569238,"ECCENTRICITY":0.0122172,"INCLINATION":54.8689,"RA_OF_ASC_NODE":218.2361,"ARG_OF_PERICENTER":302.5173,"MEAN_ANOMALY":230.0733,"EPHEMERIS_TYPE":0,"CLASSIFICATION_TYPE":"U","NORAD_CAT_ID":26407,"ELEMENT_SET_NO":999,"REV_AT_EPOCH":18839,"BSTAR":0,"MEAN_MOTION_DOT":-3.6e-7,"MEAN_MOTION_DDOT":0},{"OBJECT_NAME":"CLUSTER II-FM7 (SAMBA)","OBJECT_ID":"2000-041A","EPOCH":"2026-03-31T00:54:20.014560","MEAN_MOTION":0.44796982,"ECCENTRICITY":0.89530667,"INCLINATION":149.3581,"RA_OF_ASC_NODE":38.1493,"ARG_OF_PERICENTER":254.4502,"MEAN_ANOMALY":0.4223,"EPHEMERIS_TYPE":0,"CLASSIFICATION_TYPE":"U","NORAD_CAT_ID":26410,"ELEMENT_SET_NO":999,"REV_AT_EPOCH":1996,"BSTAR":0,"MEAN_MOTION_DOT":2.444e-5,"MEAN_MOTION_DDOT":0},{"OBJECT_NAME":"CLUSTER II-FM8 (TANGO)","OBJECT_ID":"2000-045B","EPOCH":"2026-04-01T20:34:37.124832","MEAN_MOTION":0.44400395,"ECCENTRICITY":0.89593231,"INCLINATION":149.661,"RA_OF_ASC_NODE":39.2823,"ARG_OF_PERICENTER":255.459,"MEAN_ANOMALY":0.3323,"EPHEMERIS_TYPE":0,"CLASSIFICATION_TYPE":"U","NORAD_CAT_ID":26464,"ELEMENT_SET_NO":999,"REV_AT_EPOCH":1995,"BSTAR":0,"MEAN_MOTION_DOT":2.741e-5,"MEAN_MOTION_DDOT":0},{"OBJECT_NAME":"NSS-11","OBJECT_ID":"2000-059A","EPOCH":"2026-04-01T03:28:40.498752","MEAN_MOTION":1.00272264,"ECCENTRICITY":0.0003046,"INCLINATION":1.9284,"RA_OF_ASC_NODE":82.2836,"ARG_OF_PERICENTER":285.9106,"MEAN_ANOMALY":49.468,"EPHEMERIS_TYPE":0,"CLASSIFICATION_TYPE":"U","NORAD_CAT_ID":26554,"ELEMENT_SET_NO":999,"REV_AT_EPOCH":4051,"BSTAR":0,"MEAN_MOTION_DOT":1.6e-7,"MEAN_MOTION_DDOT":0},{"OBJECT_NAME":"USA 153","OBJECT_ID":"2000-065A","EPOCH":"2026-03-31T17:16:38.496000","MEAN_MOTION":1.00275703,"ECCENTRICITY":0.0003335,"INCLINATION":11.4937,"RA_OF_ASC_NODE":36.0521,"ARG_OF_PERICENTER":16.986,"MEAN_ANOMALY":169.678,"EPHEMERIS_TYPE":0,"CLASSIFICATION_TYPE":"U","NORAD_CAT_ID":26575,"ELEMENT_SET_NO":999,"REV_AT_EPOCH":3215,"BSTAR":0,"MEAN_MOTION_DOT":-3.3e-6,"MEAN_MOTION_DDOT":0},{"OBJECT_NAME":"AMC-6","OBJECT_ID":"2000-067A","EPOCH":"2026-04-01T03:42:39.156768","MEAN_MOTION":1.00272485,"ECCENTRICITY":0.0003584,"INCLINATION":0.0566,"RA_OF_ASC_NODE":51.654,"ARG_OF_PERICENTER":329.9696,"MEAN_ANOMALY":88.4866,"EPHEMERIS_TYPE":0,"CLASSIFICATION_TYPE":"U","NORAD_CAT_ID":26580,"ELEMENT_SET_NO":999,"REV_AT_EPOCH":9312,"BSTAR":0,"MEAN_MOTION_DOT":7.8e-7,"MEAN_MOTION_DDOT":0},{"OBJECT_NAME":"NAVSTAR 49 (USA 154)","OBJECT_ID":"2000-071A","EPOCH":"2026-03-31T21:17:38.722272","MEAN_MOTION":2.00569249,"ECCENTRICITY":0.0173916,"INCLINATION":55.5807,"RA_OF_ASC_NODE":98.0056,"ARG_OF_PERICENTER":265.9706,"MEAN_ANOMALY":287.044,"EPHEMERIS_TYPE":0,"CLASSIFICATION_TYPE":"U","NORAD_CAT_ID":26605,"ELEMENT_SET_NO":999,"REV_AT_EPOCH":18596,"BSTAR":0,"MEAN_MOTION_DOT":3.6e-7,"MEAN_MOTION_DDOT":0},{"OBJECT_NAME":"ISS (DESTINY)","OBJECT_ID":"2001-006B","EPOCH":"2026-04-01T02:25:28.666272","MEAN_MOTION":15.48690056,"ECCENTRICITY":0.0006224,"INCLINATION":51.6334,"RA_OF_ASC_NODE":321.5639,"ARG_OF_PERICENTER":257.9417,"MEAN_ANOMALY":102.0874,"EPHEMERIS_TYPE":0,"CLASSIFICATION_TYPE":"U","NORAD_CAT_ID":26700,"ELEMENT_SET_NO":999,"REV_AT_EPOCH":55957,"BSTAR":0.00017059,"MEAN_MOTION_DOT":8.862e-5,"MEAN_MOTION_DDOT":0},{"OBJECT_NAME":"ODIN","OBJECT_ID":"2001-007A","EPOCH":"2026-04-01T01:16:44.050368","MEAN_MOTION":15.60859288,"ECCENTRICITY":0.0004781,"INCLINATION":97.4018,"RA_OF_ASC_NODE":128.0466,"ARG_OF_PERICENTER":94.7893,"MEAN_ANOMALY":265.3911,"EPHEMERIS_TYPE":0,"CLASSIFICATION_TYPE":"U","NORAD_CAT_ID":26702,"ELEMENT_SET_NO":999,"REV_AT_EPOCH":37732,"BSTAR":0.00068067,"MEAN_MOTION_DOT":0.00057026,"MEAN_MOTION_DDOT":0}